NORAD_CAT_ID,OBJECT_NAME,OBJECT_TYPE,EPOCH,MEAN_MOTION,ECCENTRICITY,INCLINATION,RA_OF_ASC_NODE,ARG_OF_PERICENTER,MEAN_ANOMALY,BSTAR,MEAN_MOTION_DOT,MEAN_MOTION_DDOT,TLE_LINE0,TLE_LINE1,TLE_LINE2,SEMIMAJOR_AXIS,PERIOD,APOGEE,PERIGEE,DECAYED
51743.0,STARLINK-3512,PAYLOAD,2022-04-25 14:00:01,15.7243833,0.0002672,53.2176,187.8341,13.4806,305.0159,-0.0057768,-0.00721606,0.0,0 STARLINK-3512,1 51743U 22016AF  22115.58334491 -.00721606  00000-0 -57768-2 0  9998,2 51743  53.2176 187.8341 0002672  13.4806 305.0159 15.72438330  3717,6730.068,91.578,353.731,350.134,0.0
51743.0,STARLINK-3512,PAYLOAD,2022-04-25 22:00:00,15.71926386,0.0002547,53.2175,186.1827,12.2587,33.9405,-0.005871,-0.0071778999999999,0.0,0 STARLINK-3512,1 51743U 22016AF  22115.91667824 -.00717790  00000-0 -58710-2 0  9991,2 51743  53.2175 186.1827 0002547  12.2587  33.9405 15.71926386  3703,6731.529,91.607,355.108,351.67900000000014,0.0
51743.0,STARLINK-3512,PAYLOAD,2022-04-26 06:00:00,15.71415625,0.0002737,53.2175,184.5339,14.5402,118.7478,-0.0059831,-0.00715981,0.0,0 STARLINK-3512,1 51743U 22016AF  22116.25001157 -.00715981  00000-0 -59831-2 0  9995,2 51743  53.2175 184.5339 0002737  14.5402 118.7478 15.71415625 11301,6732.986999999999,91.637,356.695,353.01,0.0
51743.0,STARLINK-3512,PAYLOAD,2022-04-26 14:00:01,15.70903158,0.0002967,53.2174,182.8886,358.7488,221.0801,-0.0060812,-0.00712467,0.0,0 STARLINK-3512,1 51743U 22016AF  22116.58335648 -.00712467  00000-0 -60812-2 0  9993,2 51743  53.2174 182.8886 0002967 358.7488 221.0801 15.70903158  3705,6734.4519999999975,91.667,358.315,354.3180000000001,0.0
51743.0,STARLINK-3512,PAYLOAD,2022-04-26 22:00:00,15.70399151,0.0002998,53.2175,181.2409,8.216000000000001,297.409,-0.0063035,-0.00722149,0.0,0 STARLINK-3512,1 51743U 22016AF  22116.91667824 -.00722149  00000-0 -63035-2 0  9992,2 51743  53.2175 181.2409 0002998   8.2160 297.4090 15.70399151  3673,6735.892,91.696,359.777,355.73800000000006,0.0
51743.0,STARLINK-3512,PAYLOAD,2022-04-27 06:00:00,15.69891278,0.0003253999999999,53.2176,179.59599999999998,331.8423,59.0316,-0.0064623999999999,-0.00724603,0.0,0 STARLINK-3512,1 51743U 22016AF  22117.25001157 -.00724603  00000-0 -64624-2 0  9993,2 51743  53.2176 179.5960 0003254 331.8423  59.0316 15.69891278 11463,6737.345,91.726,361.402,357.01800000000014,0.0
51743.0,STARLINK-3512,PAYLOAD,2022-04-27 14:00:01,15.692553899999998,0.0002838,53.217,177.9595,282.9496,192.6926,-0.0050545,-0.00562696,0.0,0 STARLINK-3512,1 51743U 22016AF  22117.58335648 -.00562696  00000-0 -50545-2 0  9993,2 51743  53.2170 177.9595 0002838 282.9496 192.6926 15.69255390  3669,6739.165,91.763,362.943,359.117,0.0
51743.0,STARLINK-3512,PAYLOAD,2022-04-28 06:00:00,15.6825989,0.0001002999999999,53.2166,174.6739,62.1698,220.827,-0.005508,-0.00586415,0.0,0 STARLINK-3512,1 51743U 22016AF  22118.25001157 -.00586415  00000-0 -55080-2 0  9997,2 51743  53.2166 174.6739 0001003  62.1698 220.8270 15.68259890 11622,6742.017,91.822,364.5580000000001,363.205,0.0
51743.0,STARLINK-3512,PAYLOAD,2022-04-28 14:00:01,15.6784573,0.0001189,53.2174,173.0313,54.0137,311.7334,-0.0069415,-0.00715253,0.0,0 STARLINK-3512,1 51743U 22016AF  22118.58334491 -.00715253  00000-0 -69415-2 0  9994,2 51743  53.2174 173.0313 0001189  54.0137 311.7334 15.67845730 11674,6743.204000000002,91.846,365.871,364.267,0.0
51743.0,STARLINK-3512,PAYLOAD,2022-04-29 14:00:01,15.66313532,0.0001217,53.2175,168.1192,70.1189,180.3488,-0.0073385,-0.00710695,0.0,0 STARLINK-3512,1 51743U 22016AF  22119.58334491 -.00710695  00000-0 -73385-2 0  9991,2 51743  53.2175 168.1192 0001217  70.1189 180.3488 15.66313532 11830,6747.601,91.936,370.287,368.645,0.0
51743.0,STARLINK-3512,PAYLOAD,2022-04-29 22:00:00,15.65806828,0.0001136,53.2176,166.4823,59.521,271.2945,-0.0075556,-0.00716347,0.0,0 STARLINK-3512,1 51743U 22016AF  22119.91667824 -.00716347  00000-0 -75556-2 0  9999,2 51743  53.2176 166.4823 0001136  59.5210 271.2945 15.65806828  3708,6749.056,91.965,371.68800000000016,370.155,0.0
51743.0,STARLINK-3512,PAYLOAD,2022-04-30 12:00:00,15.64915367,0.0001214,53.2176,163.6263,56.2704,323.6775,-0.0078526,-0.00718127,0.0,0 STARLINK-3512,1 51743U 22016AF  22120.50001157 -.00718127  00000-0 -78526-2 0  9995,2 51743  53.2176 163.6263 0001214  56.2704 323.6775 15.64915367 11973,6751.619000000002,92.018,374.304,372.665,0.0
51743.0,STARLINK-3512,PAYLOAD,2022-04-30 14:00:01,15.64782873,0.0001338,53.2173,163.2183,52.07,77.6026,-0.0077867999999999,-0.00709153,0.0,0 STARLINK-3512,1 51743U 22016AF  22120.58334491 -.00709153  00000-0 -77868-2 0  9990,2 51743  53.2173 163.2183 0001338  52.0700  77.6026 15.64782873  3682,6752.0,92.026,374.769,372.962,0.0
51743.0,STARLINK-3512,PAYLOAD,2022-04-30 22:00:00,15.64164095,0.0001452,53.2165,161.5896,41.1931,167.0428,-0.0062044,-0.005614,0.0,0 STARLINK-3512,1 51743U 22016AF  22120.91667824 -.00561400  00000-0 -62044-2 0  9997,2 51743  53.2165 161.5896 0001452  41.1931 167.0428 15.64164095  3676,6753.781,92.062,376.627,374.665,0.0
51743.0,STARLINK-3512,PAYLOAD,2022-05-01 14:00:01,15.63256042,0.000114,53.2172,158.3288,57.7108,305.65,-0.0083302,-0.00713499,0.0,0 STARLINK-3512,1 51743U 22016AF  22121.58334491 -.00713499  00000-0 -83302-2 0  9999,2 51743  53.2172 158.3288 0001140  57.7108 305.6500 15.63256042 12142,6756.396,92.115,379.031,377.491,0.0
51743.0,STARLINK-3512,PAYLOAD,2022-05-01 22:00:01,15.62745137,0.0001284,53.2174,156.6993,47.1945,32.9042,-0.0084881,-0.00712624,0.0,0 STARLINK-3512,1 51743U 22016AF  22121.91668981 -.00712624  00000-0 -84881-2 0  9992,2 51743  53.2174 156.6993 0001284  47.1945  32.9042 15.62745137  3710,6757.869000000002,92.146,380.601,378.866,0.0
51743.0,STARLINK-3512,PAYLOAD,2022-05-02 14:00:01,15.61725323,0.0001324,53.2172,153.4499,60.6611,170.8746,-0.008824,-0.00711867,0.0,0 STARLINK-3512,1 51743U 22016AF  22122.58334491 -.00711867  00000-0 -88240-2 0  9993,2 51743  53.2172 153.4499 0001324  60.6611 170.8746 15.61725323 12301,6760.81,92.206,383.57,381.78,0.0
51743.0,STARLINK-3512,PAYLOAD,2022-05-02 22:00:01,15.61139126,0.0001377,53.2164,151.828,37.8425,268.6274,-0.0076006,-0.00607207,0.0,0 STARLINK-3512,1 51743U 22016AF  22122.91668981 -.00607207  00000-0 -76006-2 0  9993,2 51743  53.2164 151.8280 0001377  37.8425 268.6274 15.61139126  3660,6762.502,92.24,385.299,383.436,0.0
51743.0,STARLINK-3512,PAYLOAD,2022-05-03 14:00:01,15.60196794,0.0001349,53.217,148.5826,47.5079,46.6867,-0.0093935,-0.00713995,0.0,0 STARLINK-3512,1 51743U 22016AF  22123.58334491 -.00713995  00000-0 -93935-2 0  9995,2 51743  53.2170 148.5826 0001349  47.5079  46.6867 15.60196794 12450,6765.225,92.296,388.003,386.17800000000005,0.0
51743.0,STARLINK-3512,PAYLOAD,2022-05-03 22:00:00,15.5968588,0.0001464,53.2171,146.9605,48.4507,118.7398,-0.0095593,-0.00712602,0.0,0 STARLINK-3512,1 51743U 22016AF  22123.91667824 -.00712602  00000-0 -95593-2 0  9997,2 51743  53.2171 146.9605 0001464  48.4507 118.7398 15.59685880  3707,6766.7019999999975,92.326,389.5580000000001,387.577,0.0
51743.0,STARLINK-3512,PAYLOAD,2022-05-04 14:00:01,15.58667921,0.000127,53.2172,143.7262,54.8494,256.4889,-0.0099746,-0.00714924,0.0,0 STARLINK-3512,1 51743U 22016AF  22124.58334491 -.00714924  00000-0 -99746-2 0  9995,2 51743  53.2172 143.7262 0001270  54.8494 256.4889 15.58667921 12613,6769.648,92.387,392.37300000000016,390.654,0.0
51743.0,STARLINK-3512,PAYLOAD,2022-05-04 22:00:01,15.58155565,0.0001262,53.2173,142.1078,48.0471,334.5146,-0.010132,-0.00712424,0.0,0 STARLINK-3512,1 51743U 22016AF  22124.91668981 -.00712424  00000-0 -10132-1 0  9990,2 51743  53.2173 142.1078 0001262  48.0471 334.5146 15.58155565  3714,6771.132,92.417,393.852,392.143,0.0
51743.0,STARLINK-3512,PAYLOAD,2022-05-05 14:00:01,15.57137714,0.0001391,53.2171,138.8807,55.0057,107.9624,-0.010573,-0.00715167,0.0,0 STARLINK-3512,1 51743U 22016AF  22125.58334491 -.00715167  00000-0 -10573-1 0  9996,2 51743  53.2171 138.8807 0001391  55.0057 107.9624 15.57137714  3713,6774.083000000001,92.477,396.89,395.005,0.0
51743.0,STARLINK-3512,PAYLOAD,2022-05-05 16:00:00,15.57009346,0.0001426999999999,53.2167,138.4782,47.5242,222.8304,-0.010604,-0.00713929,0.0,0 STARLINK-3512,1 51743U 22016AF  22125.66667824 -.00713929  00000-0 -10604-1 0  9993,2 51743  53.2167 138.4782 0001427  47.5242 222.8304 15.57009346 12786,6774.455,92.485,397.287,395.353,0.0
51743.0,STARLINK-3512,PAYLOAD,2022-05-05 22:00:00,15.56515724,0.00017,53.2161,137.2691,45.8408,186.5032,-0.0084123999999999,-0.00566464,0.0,0 STARLINK-3512,1 51743U 22016AF  22125.91667824 -.00566464  00000-0 -84124-2 0  9990,2 51743  53.2161 137.2691 0001700  45.8408 186.5032 15.56515724  3678,6775.887,92.514,398.904,396.6,0.0
51743.0,STARLINK-3512,PAYLOAD,2022-05-06 14:00:01,15.55607905,0.0001228,53.2171,134.0467,52.9307,316.1511,-0.011181,-0.00714281,0.0,0 STARLINK-3512,1 51743U 22016AF  22126.58334491 -.00714281  00000-0 -11181-1 0  9999,2 51743  53.2171 134.0467 0001228  52.9307 316.1511 15.55607905  3717,6778.523,92.568,401.221,399.556,0.0
51743.0,STARLINK-3512,PAYLOAD,2022-05-06 22:00:00,15.55096398,0.0001460999999999,53.2172,132.436,40.9175,35.6456,-0.011377,-0.00713275,0.0,0 STARLINK-3512,1 51743U 22016AF  22126.91667824 -.00713275  00000-0 -11377-1 0  9994,2 51743  53.2172 132.4360 0001461  40.9175  35.6456 15.55096398 12978,6780.009,92.599,402.865,400.884,0.0
51743.0,STARLINK-3512,PAYLOAD,2022-05-07 14:00:01,15.54078372,0.0001398,53.2171,129.2235,57.9899,151.6913,-0.011858,-0.00715787,0.0,0 STARLINK-3512,1 51743U 22016AF  22127.58334491 -.00715787  00000-0 -11858-1 0  9993,2 51743  53.2171 129.2235 0001398  57.9899 151.6913 15.54078372  3712,6782.97,92.659,405.783,403.887,0.0
51743.0,STARLINK-3512,PAYLOAD,2022-05-07 22:00:00,15.53566014,0.0001406,53.2173,127.6165,52.6011,222.7225,-0.012008,-0.00711721,0.0,0 STARLINK-3512,1 51743U 22016AF  22127.91667824 -.00711721  00000-0 -12008-1 0  9991,2 51743  53.2173 127.6165 0001406  52.6011 222.7225 15.53566014 13133,6784.4609999999975,92.69,407.28,405.372,0.0
